COSMOS 2361 [-]         
1 25590U 98076A   22194.22105991  .00000049  00000+0  36791-4 0  9990
2 25590  82.9337 187.1093 0032550 134.9821 236.4438 13.73023108179776
COSMOS 2378 [-]         
1 26818U 01023A   22194.46995101  .00000032  00000+0  17793-4 0  9999
2 26818  82.9268 204.9159 0034481  82.4519 278.0552 13.73971750 57881
COSMOS 2389 [-]         
1 27436U 02026A   22194.84824576  .00000031  00000+0  17396-4 0  9997
2 27436  82.9516 150.4692 0045205 303.2418 115.9568 13.74978076 10052
COSMOS 2398 [-]         
1 27818U 03023A   22194.51888469  .00000038  00000+0  25034-4 0  9999
2 27818  82.9491 112.4005 0031227 342.1241  17.8809 13.72213346956966
COSMOS 2407 [+]         
1 28380U 04028A   22194.53733793  .00000022  00000+0  70140-5 0  9993
2 28380  82.9607  57.1184 0038312 306.1009  53.6613 13.76116163902748
COSMOS 2414 [+]         
1 28521U 05002A   22194.64016037  .00000027  00000+0  89733-5 0  9993
2 28521  82.9497  48.4374 0041560  98.6273 261.9613 13.87659860885181
COSMOS 2429 [-]         
1 32052U 07038A   22194.42504294  .00000047  00000+0  34018-4 0  9998
2 32052  82.9802 183.1744 0036993 282.2934  77.4082 13.74964258744474
COSMOS 2454 [-]         
1 35635U 09039A   22194.79384278  .00000043  00000+0  22207-4 0  9992
2 35635  82.9557  34.6182 0020498  45.4710 314.8115 13.89689625658355
COSMOS 2463 [+]         
1 36519U 10017A   22194.86687593  .00000053  00000+0  41762-4 0  9994
2 36519  82.9592 223.3991 0037015 147.7601  26.2952 13.71477090611409
